OBJECT_NAME,OBJECT_ID,EPOCH,MEAN_MOTION,ECCENTRICITY,INCLINATION,RA_OF_ASC_NODE,ARG_OF_PERICENTER,MEAN_ANOMALY,EPHEMERIS_TYPE,CLASSIFICATION_TYPE,NORAD_CAT_ID,ELEMENT_SET_NO,REV_AT_EPOCH,BSTAR,MEAN_MOTION_DOT,MEAN_MOTION_DDOT
CUBEBUG-2 (LO-74),2013-066AA,2026-07-20T19:42:33.358752,14.93990306,.0055527,97.8921,150.9507,276.2842,83.2055,0,U,39440,999,68201,.17745314E-3,.1885E-4,0
FUNCUBE-1 (AO-73),2013-066AE,2026-07-20T20:37:53.260608,15.09868744,.00380881,97.8300,174.0216,89.2835,271.2758,0,U,39444,999,68474,.33754949E-3,.549E-4,0
UWE-3,2013-066AG,2026-07-20T20:00:50.878080,14.97225341,.00477145,97.8725,158.1433,205.2045,154.6848,0,U,39446,999,68261,.21910495E-3,.2531E-4,0
UNISAT-6,2014-033C,2026-07-20T16:21:20.857824,14.88379652,.00437708,97.7917,353.8140,319.3507,40.4445,0,U,40012,999,65114,.12892609E-3,.1158E-4,0
DUCHIFAT-1,2014-033M,2026-07-20T18:33:43.069824,15.72127670,.00034386,98.0408,265.8557,229.1155,130.9809,0,U,40021,999,66101,.81364681E-3,.107775E-2,0
QB50P1,2014-033R,2026-07-20T11:50:15.612864,15.18713788,.00105298,98.0973,214.9866,109.2595,250.9778,0,U,40025,999,65808,.22433766E-3,.4584E-4,0
LILACSAT-2,2015-049K,2026-07-20T22:16:52.544352,15.52491518,.00086356,97.4628,240.0713,124.7606,235.4461,0,U,40908,999,60098,.22459303E-3,.13675E-3,0
FOX-1A (AO-85),2015-058D,2026-07-20T06:49:54.830496,14.91108157,.01327836,64.7727,176.1140,43.8857,317.2710,0,U,40967,999,11850,.1792955E-3,.1929E-4,0
CAS-2T & KS-1Q,2016-066G,2026-07-20T19:55:07.119264,14.44776648,.03419526,98.3810,277.1812,27.6850,334.2092,0,U,41847,999,50965,.78947371E-4,.501E-5,0
RADFXSAT (FOX-1B),2017-073E,2026-07-20T03:29:03.135552,15.13099239,.01484485,97.4661,67.6884,214.2207,144.9390,0,U,43017,999,47037,.14349287E-3,.3253E-4,0
DIWATA-2B,2018-084H,2026-07-20T23:29:44.987424,15.00575625,.00125177,98.1221,39.6681,66.4375,293.8160,0,U,43678,999,42128,.83164914E-4,.985E-5,0
ES'HAIL 2,2018-090A,2026-07-20T08:07:04.463904,1.00274071,.00024517,0.0208,80.1003,77.6851,287.8888,0,U,43700,999,2800,0,.143E-5,0
FOX-1CLIFF (AO-95),2018-099N,2026-07-20T16:38:29.042016,15.27341494,.00077257,97.4361,261.8279,217.8833,142.1863,0,U,43770,999,41833,.24841518E-3,.6582E-4,0
ITASAT,2018-099AE,2026-07-20T09:57:04.443264,15.19417487,.00111874,97.4007,252.2679,230.0239,130.0014,0,U,43786,999,41795,.17496143E-3,.3642E-4,0
JY1SAT (JO-97),2018-099AX,2026-07-20T19:35:36.696480,15.34633292,.00072607,97.4107,264.7878,141.3682,218.8082,0,U,43803,999,41878,.36756485E-3,.12271E-3,0
UWE-4,2018-111E,2026-07-20T18:46:45.439968,15.48042440,.00070262,97.5826,131.7716,173.9264,186.2072,0,U,43880,999,41597,.41740916E-3,.21799E-3,0
TIANYAN 01,2019-093C,2026-07-20T23:16:21.318816,14.86567412,.00130311,97.7512,273.3761,342.5164,17.5601,0,U,44881,999,35643,.10186547E-3,.85E-5,0
RS-44 & BREEZE-KM R/B,2019-096E,2026-07-20T20:34:31.613376,12.79748835,.02184067,82.5240,317.3331,65.8142,296.5621,0,U,44909,999,30665,-.38550654E-4,.3E-7,0
SALSAT,2020-068K,2026-07-20T22:58:29.249472,15.30221969,.00098213,97.8866,207.0909,172.7459,187.3924,0,U,46495,999,32052,.18248446E-3,.5257E-4,0
XW-3 (CAS-9),2021-131B,2026-07-20T22:20:22.352928,14.41384317,.00042019,98.4982,294.1387,15.6588,344.4730,0,U,50466,999,23997,.73812957E-4,.195E-5,0
GREENCUBE (IO-117),2022-080E,2026-07-20T04:18:04.419648,6.42583323,.00090888,70.1400,286.7734,282.4177,77.5466,0,U,53109,999,9418,0,-.3E-7,0
UMKA 1 (RS40S),2023-091G,2026-07-20T21:48:51.239232,15.21158805,.00124503,97.5028,260.4807,10.2870,349.8618,0,U,57172,999,16913,.17507253E-3,.3836E-4,0
CUBESX-HSE 3 (RS42S),2023-091N,2026-07-20T22:48:45.531936,15.31969656,.00091053,97.5069,267.9801,340.2167,19.8720,0,U,57178,999,16959,.3028542E-3,.9281E-4,0
MONITOR-3 (RS58S),2023-091Q,2026-07-20T22:05:21.020352,15.28438230,.0010371,97.5061,265.6253,348.9774,11.1236,0,U,57180,999,16944,.26321402E-3,.7221E-4,0
MONITOR-4 (RS57S),2023-091S,2026-07-20T21:32:28.580928,15.28525647,.00103918,97.5055,265.5753,349.2560,10.8456,0,U,57182,999,16944,.25443014E-3,.6996E-4,0
MONITOR-2 (RS39S),2023-091U,2026-07-20T21:46:41.789568,15.19184572,.00108067,97.5050,259.9749,4.7122,355.4212,0,U,57184,999,16907,.1530458E-3,.3154E-4,0
SVYATOBOR 1 (RS60S),2023-091X,2026-07-20T22:34:38.561376,15.27119129,.00081459,97.5068,265.9534,343.4159,16.6812,0,U,57187,999,16946,.22902903E-3,.602E-4,0
VIZARD-METEO (RS38S),2023-091Z,2026-07-20T22:42:58.113216,15.36985023,.00052422,97.5069,272.1299,314.6269,45.4547,0,U,57189,999,16987,.33019462E-3,.11871E-3,0
POLYTECH-UNIVERSE 3 (RS46S),2023-091AB,2026-07-20T22:19:12.716256,15.19398160,.00155302,97.5027,259.5016,18.5255,341.6542,0,U,57191,999,16907,.15037134E-3,.3122E-4,0
UTMN 2 (RS27S),2023-091AP,2026-07-20T22:47:56.810112,15.32784115,.00062304,97.5066,269.6543,327.1315,32.9538,0,U,57203,999,16971,.28421151E-3,.8924E-4,0
